CUBESAT XI-IV (CO-57)   
1 27848U 03031J   25228.46442318  .00000232  00000+0  12152-3 0  9997
2 27848  98.6807 235.8211 0009805  15.5491 344.5987 14.23369780148026
MOZHAYETS 4 (RS-22)     
1 27939U 03042A   25228.83892076  .00001069  00000+0  17661-3 0  9990
2 27939  98.3342  39.9677 0012012 148.6417 318.6416 14.72495421170746
IRS-P6 (RESOURCESAT-1)  
1 28051U 03046A   25228.82743562  .00000166  00000+0  69650-4 0  9997
2 28051  98.2364 274.5708 0064352 174.0809 274.6554 14.36001887136845
SAUDISAT 2              
1 28371U 04025F   25228.70687408  .00000278  00000+0  73497-4 0  9991
2 28371  98.5309 216.1898 0025453 149.5617 210.7063 14.56368438121421
COSMOS 2407             
1 28380U 04028A   25228.62619407  .00000044  00000+0  28839-4 0  9990
2 28380  82.9613 300.3752 0039732  26.2179 145.9440 13.76296867 57984
COSMOS 2414             
1 28521U 05002A   25228.51516895  .00000050  00000+0  28506-4 0  9993
2 28521  82.9471 274.0733 0041496 117.4057 243.1337 13.87883006 41558
INMARSAT 4-F1           
1 28628U 05009A   25228.81080191  .00000025  00000+0  00000+0 0  9992
2 28628   4.7676  42.4165 0001965 141.6111 251.3860  1.00270200 74622
HAMSAT (VO-52)          
1 28650U 05017B   25228.74363000  .00004383  00000+0  30578-3 0  9999
2 28650  98.0063 234.4494 0020255 351.5754   8.5129 15.05782968100886
NOAA 18                 
1 28654U 05018A   25228.78310038  .00000074  00000+0  62769-4 0  9992
2 28654  98.8397 307.4856 0013201 297.8034  62.1800 14.13627456 43300
SJ-7                    
1 28737U 05024A   25228.76493100  .00005630  00000+0  29926-3 0  9991
2 28737  97.7585 246.4439 0017830  12.0825 348.0831 15.15574424101826
CUBESAT XI-V            
1 28895U 05043F   25228.33087247  .00001528  00000+0  25579-3 0  9993
2 28895  98.2586  13.5682 0015682  92.5558 267.7444 14.71215008 56906
CLOUDSAT                
1 29107U 06016A   25228.78483798  .00001129  00000+0  13807-3 0  9999
2 29107  98.4226 243.8310 0004289 225.1325 134.9541 14.85398118 29305
CALIPSO                 
1 29108U 06016B   25228.81155767  .00001096  00000+0  19867-3 0  9991
2 29108  98.4505 229.2002 0001685 105.9741 254.1649 14.68369054 28374
HINODE (SOLAR-B)        
1 29479U 06041A   25228.51119609  .00000659  00000+0  12330-3 0  9994
2 29479  98.0720 244.0061 0017892 169.7763 190.3809 14.68017615 10169
METOP-A                 
1 29499U 06044A   25228.78989124  .00000997  00000+0  12519-3 0  9999
2 29499  98.3308 321.4713 0177657 319.2577 151.8844 14.74261850980572
SHIJIAN-6 02B (SJ-6 02B)
1 29506U 06046B   25228.83524613  .00001624  00000+0  13511-3 0  9995
2 29506  97.7090 255.6902 0008129  10.0227 350.1157 15.00062998 25095
DMSP 5D-3 F17 (USA 191) 
1 29522U 06050A   25228.81481168  .00000066  00000+0  56696-4 0  9994
2 29522  98.7407 236.6258 0009626 198.8632 161.2186 14.14848073969378
LAPAN-TUBSAT            
1 29709U 07001A   25228.77144098  .00000570  00000+0  72700-4 0  9995
2 29709  98.1149 216.5684 0013733  96.2042 264.0737 14.85414790  5954
HAIYANG-1B              
1 31113U 07010A   25228.49179510  .00000095  00000+0  51966-4 0  9996
2 31113  98.3189 217.7130 0014224  29.6820 330.5168 14.30910683957057
BEIDOU-2 M1             
1 31115U 07011A   25228.34477894  .00000059  00000+0  00000+0 0  9997
2 31115  51.0467 229.4088 0001899 320.2895  39.7100  1.77349206 70742
CAPE-1                  
1 31130U 07012P   25228.40816238  .00001449  00000+0  27527-3 0  9992
2 31130  98.4032 190.7499 0084108 302.8874  56.4254 14.63597349973745
CBERS 2B                
1 32062U 07042A   25228.43247106  .00000192  00000+0  72186-4 0  9991
2 32062  98.3513 174.1172 0031253 170.2768 301.2390 14.41219921940782
COSMO-SKYMED 2          
1 32376U 07059A   25228.75611708  .00000449  00000+0  62929-4 0  9994
2 32376  97.8899  51.7721 0001457  91.2375 268.9005 14.82155144956982
CARTOSAT-2A             
1 32783U 08021A   25228.80034570  .00000602  00000+0  88855-4 0  9995
2 32783  97.8102 282.2064 0011786  27.1292 333.0533 14.78714049933811
CUTE-1.7+APD II (CO-65) 
1 32785U 08021C   25228.83378360  .00003874  00000+0  27705-3 0  9998
2 32785  97.7906 200.5497 0009097 354.6966   5.4162 15.05029130939348
COMPASS-1               
1 32787U 08021E   25228.72668101  .00056609  00000+0  94206-3 0  9997
2 32787  97.6452 222.8857 0008946 124.2114 235.9986 15.51816187942794
SEEDS II (CO-66)        
1 32791U 08021J   25228.66853171  .00010199  00000+0  47420-3 0  9998
2 32791  97.7328 210.3137 0001335 319.5401  40.5734 15.20171375940831
YUBILEINY (RS-30)       
1 32953U 08025A   25228.80909126  .00000043  00000+0  23755-3 0  9992
2 32953  82.5050 184.7506 0017880 256.8666 103.0419 12.43167216782006
FENGYUN 3A              
1 32958U 08026A   25228.54802932  .00000069  00000+0  53463-4 0  9994
2 32958  98.6500 170.6929 0007637 289.1275  70.9074 14.19462174892182
HUANJING 1A (HJ-1A)     
1 33320U 08041A   25228.83175723  .00001302  00000+0  16642-3 0  9996
2 33320  97.6448 222.1387 0020782  60.3939 299.9343 14.82869509913289
HUANJING 1B (HJ-1B)     
1 33321U 08041B   25228.81574079  .00000986  00000+0  12793-3 0  9992
2 33321  97.6329 226.1046 0038615 101.7683 258.7867 14.82378877913304
SHIJIAN-6 03A (SJ-6 03A)
1 33408U 08053A   25228.79072821  .00005215  00000+0  30152-3 0  9995
2 33408  97.8728 246.9030 0011602 344.5996  15.4879 15.12690614916875
SHIJIAN-6 03B (SJ-6 03B)
1 33409U 08053B   25228.83176632  .00001648  00000+0  12761-3 0  9998
2 33409  97.8745 238.7314 0019316 351.4496   8.6396 15.02776656917016
CHUANGXIN 1-02 (CX-1-02)
1 33434U 08056B   25228.81187667  .00000050  00000+0  36404-4 0  9994
2 33434  98.6449 252.6485 0013423 317.7369  42.2777 14.30059501875119
STARS (KUKAI)           
1 33498U 09002G   25228.78964417  .00002793  00000+0  27920-3 0  9996
2 33498  98.1225 160.0504 0010651  93.6378 266.6058 14.92289090893020
KKS-1 (KISEKI)          
1 33499U 09002H   25228.79681011  .00001250  00000+0  16518-3 0  9992
2 33499  98.1145 141.7809 0007753 186.0865 174.0254 14.81803448891095
NOAA 19                 
1 33591U 09005A   25228.80057493  .00000046  00000+0  48491-4 0  9999
2 33591  98.9927 293.8740 0014083 167.0551 193.0985 14.13396380851480
UK-DMC 2                
1 35683U 09041C   25228.84320275  .00000791  00000+0  12414-3 0  9990
2 35683  97.8409   7.2191 0001373 101.8075 258.3288 14.75246391861687
METEOR-M 1              
1 35865U 09049A   25228.63929107  .00000081  00000+0  55530-4 0  9995
2 35865  98.6910 189.0949 0003340 102.5627 257.5925 14.23039406825939
OCEANSAT-2              
1 35931U 09051A   25228.80620914  .00000024  00000+0  42212-4 0  9995
2 35931  98.2230 241.3309 0016326  21.6101 338.5751 13.99594789836753
SWISSCUBE               
1 35932U 09051B   25228.68756921  .00000947  00000+0  20105-3 0  9990
2 35932  98.4213 126.1769 0008292  80.9317 279.2821 14.61472258844661
BEESAT-1                
1 35933U 09051C   25228.27873665  .00000791  00000+0  17180-3 0  9997
2 35933  98.4145 125.9934 0006691  93.1575 267.0391 14.60865216844655
ITUPSAT1                
1 35935U 09051E   25228.69430149  .00000729  00000+0  16333-3 0  9991
2 35935  98.4238 125.8997 0008880 100.4232 259.7969 14.59654701844306
DMSP 5D-3 F18 (USA 210) 
1 35951U 09057A   25228.75699042  .00000263  00000+0  15965-3 0  9994
2 35951  98.8653 205.8450 0011974  40.9582 319.2488 14.14672644816546
PROBA-2                 
1 36037U 09059B   25228.74471662  .00000196  00000+0  56336-4 0  9990
2 36037  98.2402  51.4491 0014057 136.9473 223.2827 14.54590666837268
YAOGAN-7                
1 36110U 09069A   25228.52815234  .00000425  00000+0  66795-4 0  9991
2 36110  98.0456 110.6500 0023653 303.1070  56.7870 14.77493084844636
XIWANG-1 (HOPE-1)       
1 36122U 09072B   25226.73812847 -.00000007  00000+0  96294-4 0  9990
2 36122 100.3534 181.1319 0007050 210.1099 149.9609 13.16426940752783
RADUGA-1M 2             
1 36358U 10002A   25228.81000617 -.00000160  00000+0  00000+0 0  9996
2 36358   2.8217  82.7273 0004069 234.7075 238.0975  0.98966246 47019
COSMOS 2463             
1 36519U 10017A   25228.44540420  .00000034  00000+0  21240-4 0  9994
2 36519  82.9601 113.6434 0034787 255.4272 278.4450 13.71635522766150
CARTOSAT-2B             
1 36795U 10035A   25228.76851690  .00000621  00000+0  91410-4 0  9997
2 36795  97.8039 281.4934 0013018  98.1816 262.0872 14.78726773814861
AISSAT 1                
1 36797U 10035C   25228.63716061  .00002271  00000+0  21143-3 0  9995
2 36797  98.1252 111.9905 0009085 356.5075   3.6080 14.95344299818677
TISAT 1                 
1 36799U 10035E   25228.51830370  .00010742  00000+0  53068-3 0  9997
2 36799  98.0527 146.8561 0002455 179.2731 180.8505 15.18061853821279
YAOGAN-10               
1 36834U 10038A   25228.83263269  .00000567  00000+0  74007-4 0  9993
2 36834  97.9249 249.4670 0001592  86.9042  85.8617 14.84298746812047
SHIJIAN-6 04B (SJ-6 04B)
1 37180U 10051B   25228.81287244  .00001712  00000+0  14860-3 0  9993
2 37180  97.8647 226.3579 0008608 242.7029 117.3317 14.98391333810088
FENGYUN 3B              
1 37214U 10059A   25228.87269229  .00000045  00000+0  46847-4 0  9997
2 37214  99.0089 267.9000 0021538 331.3251 201.6376 14.14745818764392
COSMO-SKYMED 4          
1 37216U 10060A   25228.76877008  .00000438  00000+0  61556-4 0  9999
2 37216  97.8897  51.7866 0001358  87.8032 272.3337 14.82158500799474
O/OREOS (USA 219)       
1 37224U 10062C   25228.77091515  .00002027  00000+0  20681-3 0  9991
2 37224  71.9710  48.9248 0016652 284.2302  75.7017 14.91745360 71219
ELEKTRO-L 1 (GOMS 2)    
1 37344U 11001A   25228.81722409 -.00000209  00000+0  00000+0 0  9996
2 37344   8.9903  57.5384 0004054  44.7010 132.1133  1.00238613 53436
RESOURCESAT-2           
1 37387U 11015A   25228.82334495  .00000064  00000+0  49734-4 0  9993
2 37387  98.8040 292.7996 0006126  25.9189 334.2293 14.21589292742936
